NORAD_CAT_ID,OBJECT_NAME,OBJECT_TYPE,EPOCH,MEAN_MOTION,ECCENTRICITY,INCLINATION,RA_OF_ASC_NODE,ARG_OF_PERICENTER,MEAN_ANOMALY,BSTAR,MEAN_MOTION_DOT,MEAN_MOTION_DDOT,TLE_LINE0,TLE_LINE1,TLE_LINE2,SEMIMAJOR_AXIS,PERIOD,APOGEE,PERIGEE,DECAYED
54173.0,STARLINK-5242,PAYLOAD,2023-01-25 03:53:44,15.088224800000004,0.0001249,53.2164,79.2349,107.7543,252.3585,-0.00011785,-2.162e-05,0.0,0 STARLINK-5242,1 54173U 22141S   23025.16232314 -.00002162  00000-0 -11785-3 0  9992,2 54173  53.2164  79.2349 0001249 107.7543 252.3585 15.08822480 13833,6917.934,95.439,540.663,538.935,0.0
54173.0,STARLINK-5242,PAYLOAD,2023-01-25 10:15:20,15.08790067,0.0001111,53.2166,78.0462,90.5998,269.5121,-0.00036608,-6.101e-05,0.0,0 STARLINK-5242,1 54173U 22141S   23025.42731633 -.00006101  00000-0 -36608-3 0  9997,2 54173  53.2166  78.0462 0001111  90.5998 269.5121 15.08790067 13874,6918.033,95.441,540.6669999999999,539.129,0.0
54173.0,STARLINK-5242,PAYLOAD,2023-01-25 19:47:35,15.08840443,9.09e-05,53.2173,76.2596,87.4997,272.6099,3.8993e-05,3.33e-06,0.0,0 STARLINK-5242,1 54173U 22141S   23025.82471463  .00000333  00000-0  38993-4 0  9992,2 54173  53.2173  76.2596 0000909  87.4997 272.6099 15.08840443 13938,6917.879,95.438,540.373,539.115,0.0
54173.0,STARLINK-5242,PAYLOAD,2023-01-26 10:06:02,15.08859216,0.0001468,53.2183,73.5869,97.6789,262.437,0.00016797,2.388e-05,0.0,0 STARLINK-5242,1 54173U 22141S   23026.42085799  .00002388  00000-0  16797-3 0  9991,2 54173  53.2183  73.5869 0001468  97.6789 262.4370 15.08859216 14023,6917.821999999999,95.436,540.702,538.6709999999999,0.0
54173.0,STARLINK-5242,PAYLOAD,2023-01-26 19:38:21,15.08851815,0.0001518,53.2175,71.8014,77.7643,282.3519,6.0742e-05,6.79e-06,0.0,0 STARLINK-5242,1 54173U 22141S   23026.81830415  .00000679  00000-0  60742-4 0  9998,2 54173  53.2175  71.8014 0001518  77.7643 282.3519 15.08851815 14080,6917.844,95.437,540.759,538.659,0.0
54173.0,STARLINK-5242,PAYLOAD,2023-01-27 03:35:18,15.08808639,9.37e-05,53.2174,70.3156,105.035,255.0746,0.00031175,4.673e-05,0.0,0 STARLINK-5242,1 54173U 22141S   23027.14952067  .00004673  00000-0  31175-3 0  9998,2 54173  53.2174  70.3156 0000937 105.0350 255.0746 15.08808639 14135,6917.976,95.44,540.489,539.193,0.0
54173.0,STARLINK-5242,PAYLOAD,2023-01-27 11:32:13,15.08820454,0.0001105,53.2181,68.8292,107.5003,252.611,0.00035686,5.393e-05,0.0,0 STARLINK-5242,1 54173U 22141S   23027.48071558  .00005393  00000-0  35686-3 0  9993,2 54173  53.2181  68.8292 0001105 107.5003 252.6110 15.08820454 14188,6917.94,95.439,540.57,539.0409999999999,0.0
54173.0,STARLINK-5242,PAYLOAD,2023-01-27 19:29:09,15.08821316,9.32e-05,53.2175,67.34100000000001,86.7051,273.4048,0.00027722,4.125e-05,0.0,0 STARLINK-5242,1 54173U 22141S   23027.81192079  .00004125  00000-0  27722-3 0  9996,2 54173  53.2175  67.3410 0000932  86.7051 273.4048 15.08821316 14230,6917.937,95.439,540.447,539.158,0.0
54173.0,STARLINK-5242,PAYLOAD,2023-01-28 01:50:42,15.08855351,0.0001523,53.2181,66.1547,90.5206,269.5961,-0.00023059,-3.958e-05,0.0,0 STARLINK-5242,1 54173U 22141S   23028.07687682 -.00003958  00000-0 -23059-3 0  9998,2 54173  53.2181  66.1547 0001523  90.5206 269.5961 15.08855351 14277,6917.8330000000005,95.437,540.752,538.645,0.0
54173.0,STARLINK-5242,PAYLOAD,2023-01-28 09:47:37,15.08849226,0.0001319,53.2185,64.6663,83.1044,277.0099,-0.00020044,-3.477e-05,0.0,0 STARLINK-5242,1 54173U 22141S   23028.40807759 -.00003477  00000-0 -20044-3 0  9991,2 54173  53.2185  64.6663 0001319  83.1044 277.0099 15.08849226 14320,6917.852,95.437,540.63,538.805,0.0
54173.0,STARLINK-5242,PAYLOAD,2023-01-28 19:19:56,15.08851029,0.0001156,53.2183,62.8815,94.8267,265.2857,-0.00014547,-2.603e-05,0.0,0 STARLINK-5242,1 54173U 22141S   23028.80551132 -.00002603  00000-0 -14547-3 0  9997,2 54173  53.2183  62.8815 0001156  94.8267 265.2857 15.08851029 14383,6917.847,95.437,540.511,538.912,0.0
54173.0,STARLINK-5242,PAYLOAD,2023-01-29 03:16:51,15.08839501,0.0001077,53.2184,61.3948,94.255,265.8565,3.2679e-05,2.32e-06,0.0,0 STARLINK-5242,1 54173U 22141S   23029.13671172  .00000232  00000-0  32679-4 0  9992,2 54173  53.2184  61.3948 0001077  94.2550 265.8565 15.08839501 14435,6917.882,95.438,540.492,539.002,0.0
54173.0,STARLINK-5242,PAYLOAD,2023-01-29 09:38:24,15.08845226,0.000109,53.2185,60.205,93.5626,266.5491,4.9655e-05,5.03e-06,0.0,0 STARLINK-5242,1 54173U 22141S   23029.40166715  .00000503  00000-0  49655-4 0  9997,2 54173  53.2185  60.2050 0001090  93.5626 266.5491 15.08845226 14470,6917.864,95.437,540.483,538.975,0.0
54173.0,STARLINK-5242,PAYLOAD,2023-01-30 07:53:48,15.08840736,9.21e-05,53.2179,56.0416,75.9337,284.1758,5.6151e-05,6.06e-06,0.0,0 STARLINK-5242,1 54173U 22141S   23030.32902883  .00000606  00000-0  56151-4 0  9997,2 54173  53.2179  56.0416 0000921  75.9337 284.1758 15.08840736 14616,6917.878,95.438,540.38,539.106,0.0
54173.0,STARLINK-5242,PAYLOAD,2023-01-30 19:01:30,15.08840828,0.0001067,53.2177,53.9597,87.0482,273.0633,1.8838e-05,1.2e-07,0.0,0 STARLINK-5242,1 54173U 22141S   23030.79270926  .00000012  00000-0  18838-4 0  9995,2 54173  53.2177  53.9597 0001067  87.0482 273.0633 15.08840828 14685,6917.878,95.438,540.481,539.005,0.0
54173.0,STARLINK-5242,PAYLOAD,2023-01-31 01:23:02,15.08837217,0.0001041,53.2176,52.771,87.2967,272.8144,-7.6347e-06,-4.09e-06,0.0,0 STARLINK-5242,1 54173U 22141S   23031.05767230 -.00000409  00000-0 -76347-5 0  9996,2 54173  53.2176  52.7710 0001041  87.2967 272.8144 15.08837217 14727,6917.889,95.438,540.474,539.034,0.0
54173.0,STARLINK-5242,PAYLOAD,2023-02-01 07:35:22,15.08840642,0.0001365,53.2176,47.1202,94.3819,265.7329,9.5869e-06,-1.35e-06,0.0,0 STARLINK-5242,1 54173U 22141S   23032.31622902 -.00000135  00000-0  95869-5 0  9997,2 54173  53.2176  47.1202 0001365  94.3819 265.7329 15.08840642 14918,6917.878,95.438,540.688,538.799,0.0
54173.0,STARLINK-5242,PAYLOAD,2023-02-02 01:04:37,15.08831962,0.0001397,53.2172,43.8484,98.7652,261.3498,-3.6934e-05,-8.76e-06,0.0,0 STARLINK-5242,1 54173U 22141S   23033.04487734 -.00000876  00000-0 -36934-4 0  9990,2 54173  53.2172  43.8484 0001397  98.7652 261.3498 15.08831962 15024,6917.905,95.438,540.736,538.804,0.0
54173.0,STARLINK-5242,PAYLOAD,2023-02-02 07:26:09,15.08834269,0.000154,53.2189,42.6606,104.3875,255.7288,-2.1564e-05,-6.31e-06,0.0,0 STARLINK-5242,1 54173U 22141S   23033.30983630 -.00000631  00000-0 -21564-4 0  9997,2 54173  53.2189  42.6606 0001540 104.3875 255.7288 15.08834269 15067,6917.898,95.438,540.828,538.698,0.0
54173.0,STARLINK-5242,PAYLOAD,2023-02-03 00:55:24,15.08836657,0.0001458,53.2185,39.3886,103.3553,256.7601,1.2798e-05,-8.4e-07,0.0,0 STARLINK-5242,1 54173U 22141S   23034.03847480 -.00000084  00000-0  12798-4 0  9990,2 54173  53.2185  39.3886 0001458 103.3553 256.7601 15.08836657 15171,6917.891,95.438,540.764,538.747,0.0
54173.0,STARLINK-5242,PAYLOAD,2023-02-03 07:16:56,15.08838984,0.0001428,53.2186,38.1993,102.265,257.8502,2.9948e-05,1.89e-06,0.0,0 STARLINK-5242,1 54173U 22141S   23034.30343319  .00000189  00000-0  29948-4 0  9992,2 54173  53.2186  38.1993 0001428 102.2650 257.8502 15.08838984 15213,6917.883,95.438,540.736,538.761,0.0
54173.0,STARLINK-5242,PAYLOAD,2023-02-04 03:56:57,15.08837653,0.0001399,53.219,34.3335,103.5431,256.5717,3.4267e-05,2.57e-06,0.0,0 STARLINK-5242,1 54173U 22141S   23035.16455550  .00000257  00000-0  34267-4 0  9994,2 54173  53.2190  34.3335 0001399 103.5431 256.5717 15.08837653 15344,6917.888,95.438,540.72,538.785,0.0
54173.0,STARLINK-5242,PAYLOAD,2023-02-04 07:07:43,15.08843954,0.0001336,53.2187,33.74,100.7858,259.3285,6.8133e-05,7.97e-06,0.0,0 STARLINK-5242,1 54173U 22141S   23035.29703056  .00000797  00000-0  68133-4 0  9993,2 54173  53.2187  33.7400 0001336 100.7858 259.3285 15.08843954 15363,6917.868,95.437,540.658,538.809,0.0
54173.0,STARLINK-5242,PAYLOAD,2023-02-05 00:36:58,15.08823283,0.0001593,53.2195,30.4716,105.7852,254.3316,0.0001069,1.413e-05,0.0,0 STARLINK-5242,1 54173U 22141S   23036.02568182  .00001413  00000-0  10690-3 0  9994,2 54173  53.2195  30.4716 0001593 105.7852 254.3316 15.08823283 15475,6917.931,95.439,540.899,538.694,0.0
54173.0,STARLINK-5242,PAYLOAD,2023-02-05 06:58:31,15.08824358,0.000174,53.2187,29.2814,108.1875,251.9307,0.00010679,1.411e-05,0.0,0 STARLINK-5242,1 54173U 22141S   23036.29064341  .00001411  00000-0  10679-3 0  9996,2 54173  53.2187  29.2814 0001740 108.1875 251.9307 15.08824358 15519,6917.928,95.439,540.997,538.589,0.0
54173.0,STARLINK-5242,PAYLOAD,2023-02-06 03:38:31,15.08842343,0.0001187,53.2187,25.4152,94.4357,265.677,-8.5705e-07,-3.01e-06,0.0,0 STARLINK-5242,1 54173U 22141S   23037.15175825 -.00000301  00000-0 -85705-6 0  9996,2 54173  53.2187  25.4152 0001187  94.4357 265.6770 15.08842343 15643,6917.873,95.437,540.559,538.917,0.0
54173.0,STARLINK-5242,PAYLOAD,2023-02-06 06:49:17,15.08845843,0.000124,53.219,24.8211,98.6963,261.417,3.0006e-05,1.9e-06,0.0,0 STARLINK-5242,1 54173U 22141S   23037.28423465  .00000190  00000-0  30006-4 0  9992,2 54173  53.2190  24.8211 0001240  98.6963 261.4170 15.08845843 15663,6917.863,95.437,540.585,538.87,0.0
54173.0,STARLINK-5242,PAYLOAD,2023-02-07 08:15:26,15.08858839,0.000127,53.2192,20.0591,85.3622,274.7515,0.00021057,3.067e-05,0.0,0 STARLINK-5242,1 54173U 22141S   23038.34405770  .00003067  00000-0  21057-3 0  9990,2 54173  53.2192  20.0591 0001270  85.3622 274.7515 15.08858839 15829,6917.823,95.436,540.566,538.809,0.0
54173.0,STARLINK-5242,PAYLOAD,2023-02-08 04:55:28,15.0884589,0.0001045,53.219,16.1926,117.8473,242.2626,-2.5628e-05,-6.96e-06,0.0,0 STARLINK-5242,1 54173U 22141S   23039.20518942 -.00000696  00000-0 -25628-4 0  9998,2 54173  53.2190  16.1926 0001045 117.8473 242.2626 15.08845890 15950,6917.862,95.437,540.45,539.004,0.0
54173.0,STARLINK-5242,PAYLOAD,2023-02-08 08:06:14,15.08848538,0.0001175,53.2188,15.5962,119.4677,240.6432,-7.6309e-06,-4.09e-06,0.0,0 STARLINK-5242,1 54173U 22141S   23039.33766621 -.00000409  00000-0 -76309-5 0  9996,2 54173  53.2188  15.5962 0001175 119.4677 240.6432 15.08848538 15979,6917.854,95.437,540.532,538.906,0.0
